MESON-1                 
1 59131U 24043AK  26068.90019075  .00008544  00000+0  29748-3 0  9998
2 59131  97.5469 205.2839 0009545 227.1432 132.9007 15.29893494111890
STARLINK-32229          
1 60436U 24144M   26068.64530404 -.00001973  00000+0 -54522-4 0  9995
2 60436  53.1594 217.2449 0001003  85.0457 275.0658 15.30195030 89300
